{
  "type": "FeatureCollection",
  "name": "green_space",
  "crs": {
    "type": "name",
    "properties": {
      "name": "urn:ogc:def:crs:OGC:1.3:CRS84"
    }
  },
  "features": [
    {
      "type": "Feature",
      "properties": {
        "name": "京张铁路遗址公园（中段）",
        "green_type": "遗址公园",
        "land_type": "公园绿地",
        "land_code": "G1",
        "area_ha": 67.735,
        "description": "京张铁路遗址公园核心段，线性绿色廊道，AI创新带生态绿脊",
        "status": "provisional",
        "data_source": "概念设计示意"
      },
      "geometry": {
        "type": "Polygon",
        "coordinates": [
          [
            [
              116.33106569507397,
              39.97593208001442
            ],
            [
              116.33492556625802,
              39.9761392061118
            ],
            [
              116.3350879017052,
              39.993920128907284
            ],
            [
              116.33092371386489,
              39.993963357163445
            ],
            [
              116.33106569507397,
              39.97593208001442
            ]
          ]
        ]
      }
    },
    {
      "type": "Feature",
      "properties": {
        "name": "京张铁路遗址公园（北段）",
        "green_type": "遗址公园",
        "land_type": "公园绿地",
        "land_code": "G1",
        "area_ha": 56.3,
        "description": "京张铁路遗址公园北段，连接众智园片区",
        "status": "provisional",
        "data_source": "概念设计示意"
      },
      "geometry": {
        "type": "Polygon",
        "coordinates": [
          [
            [
              116.32596096015483,
              40.00241826208101
            ],
            [
              116.32985091511962,
              40.002468178533505
            ],
            [
              116.33017614546829,
              40.017570927178106
            ],
            [
              116.3261611222183,
              40.017546205966376
            ],
            [
              116.32596096015483,
              40.00241826208101
            ]
          ]
        ]
      }
    },
    {
      "type": "Feature",
      "properties": {
        "name": "京张铁路遗址公园（南段）",
        "green_type": "遗址公园",
        "land_type": "公园绿地",
        "land_code": "G1",
        "area_ha": 44.245,
        "description": "京张铁路遗址公园南段，连接大钟寺片区",
        "status": "provisional",
        "data_source": "概念设计示意"
      },
      "geometry": {
        "type": "Polygon",
        "coordinates": [
          [
            [
              116.33592037994983,
              39.95201917488525
            ],
            [
              116.33980016237587,
              39.95191476548675
            ],
            [
              116.33997195525998,
              39.96403199391248
            ],
            [
              116.33606188224948,
              39.9639859952761
            ],
            [
              116.33592037994983,
              39.95201917488525
            ]
          ]
        ]
      }
    },
    {
      "type": "Feature",
      "properties": {
        "name": "元大都城垣遗址公园",
        "green_type": "遗址公园",
        "land_type": "公园绿地",
        "land_code": "G1",
        "area_ha": 22.39,
        "description": "元大都城墙遗址公园，历史与生态交织的城市绿带",
        "status": "provisional",
        "data_source": "概念设计示意"
      },
      "geometry": {
        "type": "Polygon",
        "coordinates": [
          [
            [
              116.35097686391973,
              39.97838548056039
            ],
            [
              116.35898927447437,
              39.978660472330326
            ],
            [
              116.35911840990406,
              39.98136787655848
            ],
            [
              116.35083391821469,
              39.98150618080396
            ],
            [
              116.35097686391973,
              39.97838548056039
            ]
          ]
        ]
      }
    },
    {
      "type": "Feature",
      "properties": {
        "name": "海淀公园（东侧）",
        "green_type": "综合公园",
        "land_type": "公园绿地",
        "land_code": "G1",
        "area_ha": 33.737,
        "description": "海淀公园东部片区，城市综合性公园",
        "status": "provisional",
        "data_source": "概念设计示意"
      },
      "geometry": {
        "type": "Polygon",
        "coordinates": [
          [
            [
              116.30205317634231,
              39.974934075302166
            ],
            [
              116.30812736938582,
              39.97510045525502
            ],
            [
              116.30806911826824,
              39.9808898562664
            ],
            [
              116.3018796519731,
              39.98080977015509
            ],
            [
              116.30205317634231,
              39.974934075302166
            ]
          ]
        ]
      }
    },
    {
      "type": "Feature",
      "properties": {
        "name": "五道口社区公园",
        "green_type": "社区公园",
        "land_type": "公园绿地",
        "land_code": "G1",
        "area_ha": 9.406,
        "description": "五道口地区社区级公园绿地",
        "status": "provisional",
        "data_source": "概念设计示意"
      },
      "geometry": {
        "type": "Polygon",
        "coordinates": [
          [
            [
              116.34039793701764,
              39.99649005453769
            ],
            [
              116.34363989507784,
              39.996329131291674
            ],
            [
              116.34346577640439,
              39.99955190615229
            ],
            [
              116.3403777740947,
              39.999578541700195
            ],
            [
              116.34039793701764,
              39.99649005453769
            ]
          ]
        ]
      }
    },
    {
      "type": "Feature",
      "properties": {
        "name": "钟灵公园",
        "green_type": "主题公园",
        "land_type": "公园绿地",
        "land_code": "G1",
        "area_ha": 8.019,
        "description": "大钟寺文化主题公园，钟文化主题",
        "status": "provisional",
        "data_source": "概念设计示意"
      },
      "geometry": {
        "type": "Polygon",
        "coordinates": [
          [
            [
              116.33349775086761,
              39.96364759377584
            ],
            [
              116.33656242320443,
              39.96355221792726
            ],
            [
              116.33660038579063,
              39.96635801847543
            ],
            [
              116.33334263491862,
              39.96622005847758
            ],
            [
              116.33349775086761,
              39.96364759377584
            ]
          ]
        ]
      }
    },
    {
      "type": "Feature",
      "properties": {
        "name": "众智园中央公园",
        "green_type": "社区公园",
        "land_type": "公园绿地",
        "land_code": "G1",
        "area_ha": 11.777,
        "description": "众智园片区中央景观公园",
        "status": "provisional",
        "data_source": "概念设计示意"
      },
      "geometry": {
        "type": "Polygon",
        "coordinates": [
          [
            [
              116.32737035467268,
              40.01418318641691
            ],
            [
              116.33050718310017,
              40.013820087354055
            ],
            [
              116.33039967931185,
              40.018139334538944
            ],
            [
              116.32748258473019,
              40.01812056664069
            ],
            [
              116.32737035467268,
              40.01418318641691
            ]
          ]
        ]
      }
    },
    {
      "type": "Feature",
      "properties": {
        "name": "京藏高速防护绿带",
        "green_type": "道路防护绿",
        "land_type": "防护绿地",
        "land_code": "G2",
        "area_ha": 170.378,
        "description": "京藏高速公路两侧防护绿带",
        "status": "provisional",
        "data_source": "概念设计示意"
      },
      "geometry": {
        "type": "Polygon",
        "coordinates": [
          [
            [
              116.36156703109305,
              39.96019515698123
            ],
            [
              116.36453818092738,
              39.96018001584338
            ],
            [
              116.36465657037031,
              40.02004506092911
            ],
            [
              116.36158770958451,
              40.020001911265936
            ],
            [
              116.36156703109305,
              39.96019515698123
            ]
          ]
        ]
      }
    },
    {
      "type": "Feature",
      "properties": {
        "name": "北五环防护绿带",
        "green_type": "道路防护绿",
        "land_type": "防护绿地",
        "land_code": "G2",
        "area_ha": 151.51,
        "description": "北五环路南侧防护绿带",
        "status": "provisional",
        "data_source": "概念设计示意"
      },
      "geometry": {
        "type": "Polygon",
        "coordinates": [
          [
            [
              116.30763222766788,
              40.038519148780246
            ],
            [
              116.3626588832413,
              40.03859746217686
            ],
            [
              116.36248986977472,
              40.04140367661938
            ],
            [
              116.30739889589499,
              40.04155506457471
            ],
            [
              116.30763222766788,
              40.038519148780246
            ]
          ]
        ]
      }
    },
    {
      "type": "Feature",
      "properties": {
        "name": "AI创新中心广场绿地",
        "green_type": "公共建筑附属",
        "land_type": "附属绿地",
        "land_code": "G3",
        "area_ha": 3.565,
        "description": "AI创新中心前广场绿地",
        "status": "provisional",
        "data_source": "概念设计示意"
      },
      "geometry": {
        "type": "Polygon",
        "coordinates": [
          [
            [
              116.33610632547372,
              39.983008519925136
            ],
            [
              116.3380506993748,
              39.98290983897877
            ],
            [
              116.33783099334156,
              39.984914291260345
            ],
            [
              116.33590868604283,
              39.98492788382737
            ],
            [
              116.33610632547372,
              39.983008519925136
            ]
          ]
        ]
      }
    },
    {
      "type": "Feature",
      "properties": {
        "name": "清华科技园绿地",
        "green_type": "产业区附属",
        "land_type": "附属绿地",
        "land_code": "G3",
        "area_ha": 7.367,
        "description": "清华科技园内部景观绿地",
        "status": "provisional",
        "data_source": "概念设计示意"
      },
      "geometry": {
        "type": "Polygon",
        "coordinates": [
          [
            [
              116.32201606088901,
              39.99485534962461
            ],
            [
              116.32589250459189,
              39.995077579924924
            ],
            [
              116.32608256765667,
              39.99682569154029
            ],
            [
              116.32196303974787,
              39.9970170444562
            ],
            [
              116.32201606088901,
              39.99485534962461
            ]
          ]
        ]
      }
    },
    {
      "type": "Feature",
      "properties": {
        "name": "人才公寓中央绿地",
        "green_type": "居住区附属",
        "land_type": "附属绿地",
        "land_code": "G3",
        "area_ha": 5.734,
        "description": "人才公寓住区中央景观绿地",
        "status": "provisional",
        "data_source": "概念设计示意"
      },
      "geometry": {
        "type": "Polygon",
        "coordinates": [
          [
            [
              116.32346630969366,
              40.00988273375581
            ],
            [
              116.32646805740711,
              40.01016193539134
            ],
            [
              116.32653363176567,
              40.0120782091946
            ],
            [
              116.32364269281292,
              40.012106237830444
            ],
            [
              116.32346630969366,
              40.00988273375581
            ]
          ]
        ]
      }
    }
  ]
}