{
  "type": "FeatureCollection",
  "name": "land_use",
  "crs": {
    "type": "name",
    "properties": {
      "name": "urn:ogc:def:crs:OGC:1.3:CRS84"
    }
  },
  "features": [
    {
      "type": "Feature",
      "properties": {
        "name": "AI总部研发区",
        "land_use_type": "产业用地",
        "land_use_code": "M1",
        "area_ha": 45.024,
        "color": "#FF6B6B",
        "description": "AI原点核心产业区，人工智能总部办公与研发集群",
        "status": "provisional",
        "data_source": "概念设计示意"
      },
      "geometry": {
        "type": "Polygon",
        "coordinates": [
          [
            [
              116.33205577071938,
              39.98181000430209
            ],
            [
              116.33791001172735,
              39.98188928429526
            ],
            [
              116.33809458848566,
              39.99007067979496
            ],
            [
              116.33215687182708,
              39.98983477553305
            ],
            [
              116.33205577071938,
              39.98181000430209
            ]
          ]
        ]
      }
    },
    {
      "type": "Feature",
      "properties": {
        "name": "中关村智造大街",
        "land_use_type": "产业用地",
        "land_use_code": "M1",
        "area_ha": 18.229,
        "color": "#FF6B6B",
        "description": "智能制造与硬科技孵化产业带",
        "status": "provisional",
        "data_source": "概念设计示意"
      },
      "geometry": {
        "type": "Polygon",
        "coordinates": [
          [
            [
              116.32596876872788,
              39.979311918887774
            ],
            [
              116.32988745518992,
              39.979502142115244
            ],
            [
              116.32981061438787,
              39.98437953506027
            ],
            [
              116.32605995377511,
              39.98451797659224
            ],
            [
              116.32596876872788,
              39.979311918887774
            ]
          ]
        ]
      }
    },
    {
      "type": "Feature",
      "properties": {
        "name": "清华科技园",
        "land_use_type": "产业用地",
        "land_use_code": "M1",
        "area_ha": 23.722,
        "color": "#FF6B6B",
        "description": "清华大学科技园区，产学研一体化示范",
        "status": "provisional",
        "data_source": "概念设计示意"
      },
      "geometry": {
        "type": "Polygon",
        "coordinates": [
          [
            [
              116.32088817624881,
              39.99503570627355
            ],
            [
              116.32712377218267,
              39.99480259950387
            ],
            [
              116.32712232770074,
              39.999079255758
            ],
            [
              116.32093610020661,
              39.99886219179993
            ],
            [
              116.32088817624881,
              39.99503570627355
            ]
          ]
        ]
      }
    },
    {
      "type": "Feature",
      "properties": {
        "name": "AI算力枢纽",
        "land_use_type": "产业用地",
        "land_use_code": "M1",
        "area_ha": 11.182,
        "color": "#FF6B6B",
        "description": "超算中心与智算基础设施基地",
        "status": "provisional",
        "data_source": "概念设计示意"
      },
      "geometry": {
        "type": "Polygon",
        "coordinates": [
          [
            [
              116.33868288522889,
              39.98693463781804
            ],
            [
              116.34133709833735,
              39.986838686550726
            ],
            [
              116.34163899774653,
              39.99104149041255
            ],
            [
              116.33862285130932,
              39.99109189271468
            ],
            [
              116.33868288522889,
              39.98693463781804
            ]
          ]
        ]
      }
    },
    {
      "type": "Feature",
      "properties": {
        "name": "众智园科研区",
        "land_use_type": "产业用地",
        "land_use_code": "M1",
        "area_ha": 32.438,
        "color": "#FF6B6B",
        "description": "北部AI基础研究与交叉学科科研区",
        "status": "provisional",
        "data_source": "概念设计示意"
      },
      "geometry": {
        "type": "Polygon",
        "coordinates": [
          [
            [
              116.32551449123659,
              40.01168924630559
            ],
            [
              116.33045141375088,
              40.01152081625251
            ],
            [
              116.3306317618657,
              40.01854740790095
            ],
            [
              116.32564468276013,
              40.018530940858106
            ],
            [
              116.32551449123659,
              40.01168924630559
            ]
          ]
        ]
      }
    },
    {
      "type": "Feature",
      "properties": {
        "name": "上地创新基地",
        "land_use_type": "产业用地",
        "land_use_code": "M1",
        "area_ha": 28.001,
        "color": "#FF6B6B",
        "description": "上地信息产业基地，互联网与高新技术企业",
        "status": "provisional",
        "data_source": "概念设计示意"
      },
      "geometry": {
        "type": "Polygon",
        "coordinates": [
          [
            [
              116.31208182873448,
              40.02231832975346
            ],
            [
              116.31789115931026,
              40.02241575518544
            ],
            [
              116.31783191679077,
              40.02739311635454
            ],
            [
              116.31184040057177,
              40.02741118944124
            ],
            [
              116.31208182873448,
              40.02231832975346
            ]
          ]
        ]
      }
    },
    {
      "type": "Feature",
      "properties": {
        "name": "文创产业区",
        "land_use_type": "产业用地",
        "land_use_code": "M2",
        "area_ha": 15.313,
        "color": "#FF8C69",
        "description": "大钟寺文创产业集聚区，AIGC内容创作产业",
        "status": "provisional",
        "data_source": "概念设计示意"
      },
      "geometry": {
        "type": "Polygon",
        "coordinates": [
          [
            [
              116.33205427377771,
              39.95694593287159
            ],
            [
              116.33594807238684,
              39.95688380281231
            ],
            [
              116.33590679112882,
              39.96117466183509
            ],
            [
              116.3320592141541,
              39.961043652402275
            ],
            [
              116.33205427377771,
              39.95694593287159
            ]
          ]
        ]
      }
    },
    {
      "type": "Feature",
      "properties": {
        "name": "五道口居住区",
        "land_use_type": "居住用地",
        "land_use_code": "R2",
        "area_ha": 15.589,
        "color": "#87CEEB",
        "description": "成熟居住社区，配套完善",
        "status": "provisional",
        "data_source": "概念设计示意"
      },
      "geometry": {
        "type": "Polygon",
        "coordinates": [
          [
            [
              116.33886845545928,
              39.99009165071917
            ],
            [
              116.3428653609975,
              39.989951782176696
            ],
            [
              116.34319580934024,
              39.99405599990394
            ],
            [
              116.3390227798975,
              39.9940738457004
            ],
            [
              116.33886845545928,
              39.99009165071917
            ]
          ]
        ]
      }
    },
    {
      "type": "Feature",
      "properties": {
        "name": "知春里居住区",
        "land_use_type": "居住用地",
        "land_use_code": "R2",
        "area_ha": 23.437,
        "color": "#87CEEB",
        "description": "知春里住宅小区",
        "status": "provisional",
        "data_source": "概念设计示意"
      },
      "geometry": {
        "type": "Polygon",
        "coordinates": [
          [
            [
              116.31763714076807,
              39.97261039996462
            ],
            [
              116.32239161922878,
              39.972312840097565
            ],
            [
              116.32242618121921,
              39.97740709635039
            ],
            [
              116.31738439313743,
              39.97767716388573
            ],
            [
              116.31763714076807,
              39.97261039996462
            ]
          ]
        ]
      }
    },
    {
      "type": "Feature",
      "properties": {
        "name": "大钟寺居住区",
        "land_use_type": "居住用地",
        "land_use_code": "R2",
        "area_ha": 23.984,
        "color": "#87CEEB",
        "description": "南部居住片区",
        "status": "provisional",
        "data_source": "概念设计示意"
      },
      "geometry": {
        "type": "Polygon",
        "coordinates": [
          [
            [
              116.3196505470506,
              39.95542587115232
            ],
            [
              116.32456217546611,
              39.95545825276042
            ],
            [
              116.3246658190359,
              39.96048354074103
            ],
            [
              116.3194059520666,
              39.960398651003075
            ],
            [
              116.3196505470506,
              39.95542587115232
            ]
          ]
        ]
      }
    },
    {
      "type": "Feature",
      "properties": {
        "name": "人才公寓区",
        "land_use_type": "居住用地",
        "land_use_code": "R3",
        "area_ha": 14.327,
        "color": "#6BB3D9",
        "description": "AI产业人才公寓与保障性住房",
        "status": "provisional",
        "data_source": "概念设计示意"
      },
      "geometry": {
        "type": "Polygon",
        "coordinates": [
          [
            [
              116.32302454725367,
              40.00990509664341
            ],
            [
              116.32703383439609,
              40.010159129153436
            ],
            [
              116.32695976020206,
              40.013887728303665
            ],
            [
              116.3231990150426,
              40.01400381051747
            ],
            [
              116.32302454725367,
              40.00990509664341
            ]
          ]
        ]
      }
    },
    {
      "type": "Feature",
      "properties": {
        "name": "学院路居住带",
        "land_use_type": "居住用地",
        "land_use_code": "R2",
        "area_ha": 14.904,
        "color": "#87CEEB",
        "description": "学院路沿线成熟居住区",
        "status": "provisional",
        "data_source": "概念设计示意"
      },
      "geometry": {
        "type": "Polygon",
        "coordinates": [
          [
            [
              116.34133636376488,
              40.005318846550175
            ],
            [
              116.34434385965214,
              40.005550978416686
            ],
            [
              116.34461683174574,
              40.01046886398672
            ],
            [
              116.34132541108247,
              40.0104526477146
            ],
            [
              116.34133636376488,
              40.005318846550175
            ]
          ]
        ]
      }
    },
    {
      "type": "Feature",
      "properties": {
        "name": "AI创新展示中心",
        "land_use_type": "公共服务设施用地",
        "land_use_code": "A2",
        "area_ha": 8.046,
        "color": "#FFD93D",
        "description": "AI技术展示与公共交流中心",
        "status": "provisional",
        "data_source": "概念设计示意"
      },
      "geometry": {
        "type": "Polygon",
        "coordinates": [
          [
            [
              116.3346984485521,
              39.98151164573804
            ],
            [
              116.33768843135104,
              39.98164431188089
            ],
            [
              116.33730459240877,
              39.98458828872774
            ],
            [
              116.33457268414762,
              39.98451478813216
            ],
            [
              116.3346984485521,
              39.98151164573804
            ]
          ]
        ]
      }
    },
    {
      "type": "Feature",
      "properties": {
        "name": "清华大学校区",
        "land_use_type": "公共服务设施用地",
        "land_use_code": "A3",
        "area_ha": 59.656,
        "color": "#FFD93D",
        "description": "清华大学主校区（部分）",
        "status": "provisional",
        "data_source": "概念设计示意"
      },
      "geometry": {
        "type": "Polygon",
        "coordinates": [
          [
            [
              116.30590673007598,
              39.99105638471943
            ],
            [
              116.31384462086945,
              39.990973906100265
            ],
            [
              116.31398148948254,
              39.999181526371004
            ],
            [
              116.30615034117615,
              39.998905355620295
            ],
            [
              116.30590673007598,
              39.99105638471943
            ]
          ]
        ]
      }
    },
    {
      "type": "Feature",
      "properties": {
        "name": "北航校区",
        "land_use_type": "公共服务设施用地",
        "land_use_code": "A3",
        "area_ha": 60.138,
        "color": "#FFD93D",
        "description": "北京航空航天大学（部分）",
        "status": "provisional",
        "data_source": "概念设计示意"
      },
      "geometry": {
        "type": "Polygon",
        "coordinates": [
          [
            [
              116.34600023444521,
              39.970871460752214
            ],
            [
              116.35416505113574,
              39.97114820742794
            ],
            [
              116.35391937791658,
              39.979055579797944
            ],
            [
              116.34604358808457,
              39.97886113570742
            ],
            [
              116.34600023444521,
              39.970871460752214
            ]
          ]
        ]
      }
    },
    {
      "type": "Feature",
      "properties": {
        "name": "AI国际学校",
        "land_use_type": "公共服务设施用地",
        "land_use_code": "A3",
        "area_ha": 11.375,
        "color": "#FFD93D",
        "description": "国际教育配套学校",
        "status": "provisional",
        "data_source": "概念设计示意"
      },
      "geometry": {
        "type": "Polygon",
        "coordinates": [
          [
            [
              116.33160500432004,
              40.016015751612045
            ],
            [
              116.33461145059144,
              40.01601214146888
            ],
            [
              116.33430022875844,
              40.019929662422804
            ],
            [
              116.33130779069695,
              40.02017163944651
            ],
            [
              116.33160500432004,
              40.016015751612045
            ]
          ]
        ]
      }
    },
    {
      "type": "Feature",
      "properties": {
        "name": "社区综合服务中心",
        "land_use_type": "公共服务设施用地",
        "land_use_code": "A1",
        "area_ha": 6.052,
        "color": "#FFD93D",
        "description": "综合社区服务与政务中心",
        "status": "provisional",
        "data_source": "概念设计示意"
      },
      "geometry": {
        "type": "Polygon",
        "coordinates": [
          [
            [
              116.32065148875114,
              39.96313266621175
            ],
            [
              116.32342300565016,
              39.9628231700666
            ],
            [
              116.32365120383967,
              39.965178779778114
            ],
            [
              116.32033426138084,
              39.964994396185325
            ],
            [
              116.32065148875114,
              39.96313266621175
            ]
          ]
        ]
      }
    },
    {
      "type": "Feature",
      "properties": {
        "name": "京张铁路遗址公园（中段）",
        "land_use_type": "绿地",
        "land_use_code": "G1",
        "area_ha": 88.454,
        "color": "#6BCB77",
        "description": "京张铁路遗址公园核心段，线性绿色廊道",
        "status": "provisional",
        "data_source": "概念设计示意"
      },
      "geometry": {
        "type": "Polygon",
        "coordinates": [
          [
            [
              116.33032768500739,
              39.9761042408661
            ],
            [
              116.33560633377172,
              39.9758513565858
            ],
            [
              116.33549011295123,
              39.9940199214374
            ],
            [
              116.33040602265157,
              39.99414897321643
            ],
            [
              116.33032768500739,
              39.9761042408661
            ]
          ]
        ]
      }
    },
    {
      "type": "Feature",
      "properties": {
        "name": "元大都城垣遗址公园",
        "land_use_type": "绿地",
        "land_use_code": "G1",
        "area_ha": 22.275,
        "color": "#6BCB77",
        "description": "元大都城墙遗址公园（东段）",
        "status": "provisional",
        "data_source": "概念设计示意"
      },
      "geometry": {
        "type": "Polygon",
        "coordinates": [
          [
            [
              116.35096925517608,
              39.978384719282175
            ],
            [
              116.35901571843551,
              39.97859197242763
            ],
            [
              116.35888046042537,
              39.98142468651652
            ],
            [
              116.35119805974266,
              39.981559951223055
            ],
            [
              116.35096925517608,
              39.978384719282175
            ]
          ]
        ]
      }
    },
    {
      "type": "Feature",
      "properties": {
        "name": "海淀公园",
        "land_use_type": "绿地",
        "land_use_code": "G1",
        "area_ha": 33.783,
        "color": "#6BCB77",
        "description": "海淀公园城市综合绿地",
        "status": "provisional",
        "data_source": "概念设计示意"
      },
      "geometry": {
        "type": "Polygon",
        "coordinates": [
          [
            [
              116.30197524003357,
              39.97700703033641
            ],
            [
              116.30784840167836,
              39.97688987893481
            ],
            [
              116.30793523422487,
              39.98303532348738
            ],
            [
              116.30189204589304,
              39.98288808695378
            ],
            [
              116.30197524003357,
              39.97700703033641
            ]
          ]
        ]
      }
    },
    {
      "type": "Feature",
      "properties": {
        "name": "五道口商业中心",
        "land_use_type": "商业服务业设施用地",
        "land_use_code": "B1",
        "area_ha": 8.461,
        "color": "#DDA0DD",
        "description": "五道口商圈，商业配套服务",
        "status": "provisional",
        "data_source": "概念设计示意"
      },
      "geometry": {
        "type": "Polygon",
        "coordinates": [
          [
            [
              116.33632839723441,
              39.99155244118291
            ],
            [
              116.33939157671351,
              39.991662168005206
            ],
            [
              116.33964385416009,
              39.99432834293996
            ],
            [
              116.33639520185375,
              39.99456759111132
            ],
            [
              116.33632839723441,
              39.99155244118291
            ]
          ]
        ]
      }
    },
    {
      "type": "Feature",
      "properties": {
        "name": "大钟寺商业广场",
        "land_use_type": "商业服务业设施用地",
        "land_use_code": "B1",
        "area_ha": 11.741,
        "color": "#DDA0DD",
        "description": "大钟寺中坤广场改造更新区",
        "status": "provisional",
        "data_source": "概念设计示意"
      },
      "geometry": {
        "type": "Polygon",
        "coordinates": [
          [
            [
              116.33788569472296,
              39.957352924739496
            ],
            [
              116.34217420569622,
              39.957528417237334
            ],
            [
              116.34198906841053,
              39.96061384776972
            ],
            [
              116.33812299879911,
              39.96037616396575
            ],
            [
              116.33788569472296,
              39.957352924739496
            ]
          ]
        ]
      }
    },
    {
      "type": "Feature",
      "properties": {
        "name": "西直门交通枢纽商业",
        "land_use_type": "商业服务业设施用地",
        "land_use_code": "B1",
        "area_ha": 15.025,
        "color": "#DDA0DD",
        "description": "西直门凯德MALL及周边商业",
        "status": "provisional",
        "data_source": "概念设计示意"
      },
      "geometry": {
        "type": "Polygon",
        "coordinates": [
          [
            [
              116.34883877232569,
              39.94297242047296
            ],
            [
              116.3529694314492,
              39.942986809867215
            ],
            [
              116.35309163033978,
              39.94706934581892
            ],
            [
              116.34919366608455,
              39.94683936714846
            ],
            [
              116.34883877232569,
              39.94297242047296
            ]
          ]
        ]
      }
    },
    {
      "type": "Feature",
      "properties": {
        "name": "北京北站",
        "land_use_type": "交通设施用地",
        "land_use_code": "S3",
        "area_ha": 23.933,
        "color": "#B0C4DE",
        "description": "北京北站（西直门站）综合交通枢纽",
        "status": "provisional",
        "data_source": "概念设计示意"
      },
      "geometry": {
        "type": "Polygon",
        "coordinates": [
          [
            [
              116.34946104851285,
              39.94443572104216
            ],
            [
              116.35464466901455,
              39.944399462533575
            ],
            [
              116.35437608356338,
              39.949479445419136
            ],
            [
              116.34946875265594,
              39.94941141805787
            ],
            [
              116.34946104851285,
              39.94443572104216
            ]
          ]
        ]
      }
    }
  ]
}